API VERSION: 1.2
API SOURCE: NASA/JPL Horizons API



*******************************************************************************
Ephemeris / API_USER Mon Oct 30 14:05:40 2023 Pasadena, USA      / Horizons    
*******************************************************************************
Target body name: Moon (301)                      {source: DE441}
Center body name: Earth (399)                     {source: DE441}
Center-site name: GEOCENTRIC
*******************************************************************************
Start time      : A.D. 2054-Jan-01 00:00:00.0000 UT      
Stop  time      : A.D. 2055-Jan-01 00:00:00.0000 UT      
Step-size       : 60 minutes
*******************************************************************************
Target pole/equ : MOON_ME                         {East-longitude positive}
Target radii    : 1737.4, 1737.4, 1737.4 km       {Equator_a, b, pole_c}       
Center geodetic : 0.0, 0.0, -6378.137             {E-lon(deg),Lat(deg),Alt(km)}
Center cylindric: 0.0, 0.0, 0.0                   {E-lon(deg),Dxy(km),Dz(km)}
Center pole/equ : ITRF93                          {East-longitude positive}
Center radii    : 6378.137, 6378.137, 6356.752 km {Equator_a, b, pole_c}       
Target primary  : Earth
Vis. interferer : MOON (R_eq= 1737.400) km        {source: DE441}
Rel. light bend : Sun                             {source: DE441}
Rel. lght bnd GM: 1.3271E+11 km^3/s^2                                          
Atmos refraction: NO (AIRLESS)
RA format       : HMS
Time format     : CAL 
Calendar mode   : Mixed Julian/Gregorian
EOP file        : eop.231027.p240119                                           
EOP coverage    : DATA-BASED 1962-JAN-20 TO 2023-OCT-27. PREDICTS-> 2024-JAN-18
Units conversion: 1 au= 149597870.700 km, c= 299792.458 km/s, 1 day= 86400.0 s 
Table cut-offs 1: Elevation (-90.0deg=NO ),Airmass (>38.000=NO), Daylight (NO )
Table cut-offs 2: Solar elongation (  0.0,180.0=NO ),Local Hour Angle( 0.0=NO )
Table cut-offs 3: RA/DEC angular rate (     0.0=NO )                           
Table format    : Comma Separated Values (spreadsheet)
***********************************************************************************************************************************************
 Date__(UT)__HR:MN, , , R.A._(ICRF), DEC__(ICRF),      Illu%,  ObsSub-LON, ObsSub-LAT,  SunSub-LON, SunSub-LAT,    NP.ang,  NP.dist,     S-T-O,
***********************************************************************************************************************************************
$$SOE
 2054-Nov-28 12:00, , , 15 35 08.43, -14 07 03.6,    1.08044,    4.730677,  -6.543519,  195.563863,   1.475598,   13.2964, -942.545,  168.0622,
 2054-Nov-28 13:00, , , 15 37 25.49, -14 15 14.8,    0.99544,    4.755652,  -6.539734,  195.055739,   1.475476,   13.0890, -942.200,  168.5429,
 2054-Nov-28 14:00, , , 15 39 42.62, -14 23 20.9,    0.91467,    4.780204,  -6.535292,  194.547614,   1.475356,   12.8804, -941.853,  169.0188,
 2054-Nov-28 15:00, , , 15 41 59.82, -14 31 21.6,    0.83815,    4.804325,  -6.530195,  194.039486,   1.475235,   12.6704, -941.504,  169.4894,
 2054-Nov-28 16:00, , , 15 44 17.08, -14 39 17.1,    0.76586,    4.828011,  -6.524445,  193.531357,   1.475115,   12.4593, -941.155,  169.9539,
 2054-Nov-28 17:00, , , 15 46 34.40, -14 47 07.2,    0.69781,    4.851258,  -6.518044,  193.023227,   1.474995,   12.2470, -940.803,  170.4116,
 2054-Nov-28 18:00, , , 15 48 51.78, -14 54 51.9,    0.63398,    4.874059,  -6.510994,  192.515095,   1.474876,   12.0335, -940.451,  170.8614,
 2054-Nov-28 19:00, , , 15 51 09.22, -15 02 31.1,    0.57438,    4.896409,  -6.503297,  192.006962,   1.474757,   11.8188, -940.097,  171.3023,
 2054-Nov-28 20:00, , , 15 53 26.72, -15 10 04.9,    0.51900,    4.918304,  -6.494956,  191.498828,   1.474639,   11.6030, -939.742,  171.7329,
 2054-Nov-28 21:00, , , 15 55 44.27, -15 17 33.1,    0.46784,    4.939738,  -6.485973,  190.990692,   1.474520,   11.3861, -939.386,  172.1516,
 2054-Nov-28 22:00, , , 15 58 01.88, -15 24 55.8,    0.42088,    4.960707,  -6.476351,  190.482556,   1.474402,   11.1681, -939.029,  172.5564,
 2054-Nov-28 23:00, , , 16 00 19.55, -15 32 12.8,    0.37812,    4.981206,  -6.466091,  189.974419,   1.474285,   10.9491, -938.670,  172.9451,
 2054-Nov-29 00:00, , , 16 02 37.26, -15 39 24.2,    0.33956,    5.001229,  -6.455198,  189.466281,   1.474167,   10.7290, -938.311,  173.3149,
 2054-Nov-29 01:00, , , 16 04 55.03, -15 46 29.9,    0.30519,    5.020772,  -6.443672,  188.958142,   1.474050,   10.5079, -937.950,  173.6627,
 2054-Nov-29 02:00, , , 16 07 12.84, -15 53 29.9,    0.27500,    5.039831,  -6.431518,  188.450003,   1.473933,   10.2858, -937.588,  173.9847,
 2054-Nov-29 03:00, , , 16 09 30.70, -16 00 24.1,    0.24899,    5.058400,  -6.418737,  187.941863,   1.473816,   10.0627, -937.225,  174.2768,
 2054-Nov-29 04:00, , , 16 11 48.60, -16 07 12.4,    0.22713,    5.076476,  -6.405333,  187.433723,   1.473700,    9.8387, -936.861,  174.5342,
 2054-Nov-29 05:00, , , 16 14 06.55, -16 13 55.0,    0.20944,    5.094054,  -6.391310,  186.925583,   1.473584,    9.6138, -936.496,  174.7520,
 2054-Nov-29 06:00, , , 16 16 24.54, -16 20 31.7,    0.19588,    5.111128,  -6.376668,  186.417443,   1.473468,    9.3880, -936.130,  174.9251,
 2054-Nov-29 07:00, , , 16 18 42.57, -16 27 02.4,    0.18647,    5.127696,  -6.361413,  185.909303,   1.473352,    9.1613, -935.763,  175.0492,
 2054-Nov-29 08:00, , , 16 21 00.63, -16 33 27.2,    0.18118,    5.143753,  -6.345547,  185.401163,   1.473236,    8.9338, -935.395,  175.1206,
 2054-Nov-29 09:00, , , 16 23 18.73, -16 39 46.1,    0.18000,    5.159294,  -6.329073,  184.893023,   1.473121,    8.7055, -935.026,  175.1371,
 2054-Nov-29 10:00, , , 16 25 36.86, -16 45 58.9,    0.18293,    5.174315,  -6.311995,  184.384884,   1.473005,    8.4763, -934.656,  175.0983,
 2054-Nov-29 11:00, , , 16 27 55.02, -16 52 05.7,    0.18995,    5.188814,  -6.294316,  183.876745,   1.472890,    8.2464, -934.285,  175.0056,
 2054-Nov-29 12:00, , , 16 30 13.20, -16 58 06.4,    0.20105,    5.202784,  -6.276039,  183.368607,   1.472775,    8.0158, -933.914,  174.8621,
 2054-Nov-29 13:00, , , 16 32 31.42, -17 04 01.0,    0.21622,    5.216224,  -6.257168,  182.860469,   1.472660,    7.7844, -933.542,  174.6721,
 2054-Nov-29 14:00, , , 16 34 49.65, -17 09 49.5,    0.23544,    5.229128,  -6.237706,  182.352332,   1.472545,    7.5524, -933.169,  174.4405,
 2054-Nov-29 15:00, , , 16 37 07.91, -17 15 31.8,    0.25870,    5.241494,  -6.217658,  181.844196,   1.472431,    7.3197, -932.795,  174.1723,
 2054-Nov-29 16:00, , , 16 39 26.19, -17 21 08.0,    0.28599,    5.253317,  -6.197026,  181.336061,   1.472316,    7.0863, -932.420,  173.8725,
 2054-Nov-29 17:00, , , 16 41 44.48, -17 26 37.9,    0.31730,    5.264594,  -6.175815,  180.827928,   1.472201,    6.8524, -932.045,  173.5456,
 2054-Nov-29 18:00, , , 16 44 02.78, -17 32 01.7,    0.35260,    5.275322,  -6.154027,  180.319795,   1.472087,    6.6178, -931.669,  173.1957,
 2054-Nov-29 19:00, , , 16 46 21.10, -17 37 19.1,    0.39189,    5.285498,  -6.131668,  179.811664,   1.471972,    6.3827, -931.293,  172.8261,
 2054-Nov-29 20:00, , , 16 48 39.42, -17 42 30.3,    0.43515,    5.295117,  -6.108740,  179.303534,   1.471858,    6.1470, -930.916,  172.4399,
 2054-Nov-29 21:00, , , 16 50 57.75, -17 47 35.2,    0.48236,    5.304178,  -6.085249,  178.795405,   1.471743,    5.9109, -930.538,  172.0396,
 2054-Nov-29 22:00, , , 16 53 16.08, -17 52 33.7,    0.53350,    5.312676,  -6.061197,  178.287279,   1.471629,    5.6742, -930.160,  171.6274,
 2054-Nov-29 23:00, , , 16 55 34.41, -17 57 25.9,    0.58857,    5.320610,  -6.036589,  177.779154,   1.471515,    5.4371, -929.781,  171.2049,
 2054-Nov-30 00:00, , , 16 57 52.74, -18 02 11.8,    0.64755,    5.327975,  -6.011428,  177.271031,   1.471400,    5.1996, -929.402,  170.7737,
 2054-Nov-30 01:00, , , 17 00 11.06, -18 06 51.2,    0.71041,    5.334770,  -5.985720,  176.762910,   1.471286,    4.9616, -929.023,  170.3351,
 2054-Nov-30 02:00, , , 17 02 29.37, -18 11 24.3,    0.77714,    5.340991,  -5.959468,  176.254790,   1.471172,    4.7233, -928.643,  169.8900,
 2054-Nov-30 03:00, , , 17 04 47.67, -18 15 50.9,    0.84773,    5.346637,  -5.932676,  175.746673,   1.471057,    4.4846, -928.263,  169.4395,
 2054-Nov-30 04:00, , , 17 07 05.96, -18 20 11.2,    0.92215,    5.351703,  -5.905348,  175.238559,   1.470943,    4.2456, -927.882,  168.9841,
 2054-Nov-30 05:00, , , 17 09 24.23, -18 24 24.9,    1.00039,    5.356189,  -5.877490,  174.730446,   1.470829,    4.0063, -927.501,  168.5246,
 2054-Nov-30 06:00, , , 17 11 42.48, -18 28 32.3,    1.08243,    5.360092,  -5.849104,  174.222336,   1.470714,    3.7667, -927.120,  168.0615,
 2054-Nov-30 07:00, , , 17 14 00.71, -18 32 33.1,    1.16825,    5.363409,  -5.820197,  173.714229,   1.470600,    3.5269, -926.738,  167.5953,
 2054-Nov-30 08:00, , , 17 16 18.91, -18 36 27.5,    1.25782,    5.366139,  -5.790771,  173.206124,   1.470485,    3.2868, -926.356,  167.1264,
 2054-Nov-30 09:00, , , 17 18 37.09, -18 40 15.3,    1.35114,    5.368279,  -5.760831,  172.698023,   1.470370,    3.0466, -925.974,  166.6552,
 2054-Nov-30 10:00, , , 17 20 55.23, -18 43 56.7,    1.44819,    5.369827,  -5.730382,  172.189923,   1.470256,    2.8062, -925.592,  166.1818,
 2054-Nov-30 11:00, , , 17 23 13.34, -18 47 31.5,    1.54893,    5.370782,  -5.699429,  171.681827,   1.470141,    2.5656, -925.210,  165.7067,
 2054-Nov-30 12:00, , , 17 25 31.40, -18 50 59.9,    1.65336,    5.371142,  -5.667975,  171.173734,   1.470026,    2.3249, -924.828,  165.2299,
 2054-Nov-30 13:00, , , 17 27 49.43, -18 54 21.7,    1.76144,    5.370906,  -5.636026,  170.665644,   1.469911,    2.0842, -924.445,  164.7518,
 2054-Nov-30 14:00, , , 17 30 07.41, -18 57 36.9,    1.87317,    5.370071,  -5.603586,  170.157558,   1.469796,    1.8433, -924.063,  164.2725,
